<?xml version="1.0" encoding="UTF-8"?>
<ndm xmlns:xsi="http://www.w3.org/2001/XMLSchema-instance" xsi:noNamespaceSchemaLocation="https://sanaregistry.org/r/ndmxml_unqualified/ndmxml-2.0.0-master-2.0.xsd">
<omm id="CCSDS_OMM_VERS" version="2.0">
<header><CREATION_DATE/><ORIGINATOR/></header><body><segment><metadata><OBJECT_NAME>ONEWEB-0230</OBJECT_NAME><OBJECT_ID>2021-045C</OBJECT_ID><CENTER_NAME>EARTH</CENTER_NAME><REF_FRAME>TEME</REF_FRAME><TIME_SYSTEM>UTC</TIME_SYSTEM><MEAN_ELEMENT_THEORY>SGP4</MEAN_ELEMENT_THEORY></metadata><data><meanElements><EPOCH>2023-09-16T14:24:30.419712</EPOCH><MEAN_MOTION>13.15552029</MEAN_MOTION><ECCENTRICITY>.0001941</ECCENTRICITY><INCLINATION>87.8949</INCLINATION><RA_OF_ASC_NODE>99.2822</RA_OF_ASC_NODE><ARG_OF_PERICENTER>80.2486</ARG_OF_PERICENTER><MEAN_ANOMALY>279.8863</MEAN_ANOMALY></meanElements><tleParameters><EPHEMERIS_TYPE>0</EPHEMERIS_TYPE><CLASSIFICATION_TYPE>U</CLASSIFICATION_TYPE><NORAD_CAT_ID>48769</NORAD_CAT_ID><ELEMENT_SET_NO>999</ELEMENT_SET_NO><REV_AT_EPOCH>11369</REV_AT_EPOCH><BSTAR>.24009E-3</BSTAR><MEAN_MOTION_DOT>.103E-5</MEAN_MOTION_DOT><MEAN_MOTION_DDOT>0</MEAN_MOTION_DDOT></tleParameters></data></segment></body></omm>
<omm id="CCSDS_OMM_VERS" version="2.0">
<header><CREATION_DATE/><ORIGINATOR/></header><body><segment><metadata><OBJECT_NAME>ONEWEB-0237</OBJECT_NAME><OBJECT_ID>2021-045D</OBJECT_ID><CENTER_NAME>EARTH</CENTER_NAME><REF_FRAME>TEME</REF_FRAME><TIME_SYSTEM>UTC</TIME_SYSTEM><MEAN_ELEMENT_THEORY>SGP4</MEAN_ELEMENT_THEORY></metadata><data><meanElements><EPOCH>2023-09-17T02:55:57.508896</EPOCH><MEAN_MOTION>13.15547584</MEAN_MOTION><ECCENTRICITY>.000228</ECCENTRICITY><INCLINATION>87.8949</INCLINATION><RA_OF_ASC_NODE>99.0955</RA_OF_ASC_NODE><ARG_OF_PERICENTER>87.6435</ARG_OF_PERICENTER><MEAN_ANOMALY>272.4956</MEAN_ANOMALY></meanElements><tleParameters><EPHEMERIS_TYPE>0</EPHEMERIS_TYPE><CLASSIFICATION_TYPE>U</CLASSIFICATION_TYPE><NORAD_CAT_ID>48770</NORAD_CAT_ID><ELEMENT_SET_NO>999</ELEMENT_SET_NO><REV_AT_EPOCH>11350</REV_AT_EPOCH><BSTAR>-.23986E-3</BSTAR><MEAN_MOTION_DOT>-.77E-6</MEAN_MOTION_DOT><MEAN_MOTION_DDOT>0</MEAN_MOTION_DDOT></tleParameters></data></segment></body></omm>
<omm id="CCSDS_OMM_VERS" version="2.0">
<header><CREATION_DATE/><ORIGINATOR/></header><body><segment><metadata><OBJECT_NAME>ONEWEB-0235</OBJECT_NAME><OBJECT_ID>2021-045E</OBJECT_ID><CENTER_NAME>EARTH</CENTER_NAME><REF_FRAME>TEME</REF_FRAME><TIME_SYSTEM>UTC</TIME_SYSTEM><MEAN_ELEMENT_THEORY>SGP4</MEAN_ELEMENT_THEORY></metadata><data><meanElements><EPOCH>2023-09-16T13:29:44.100672</EPOCH><MEAN_MOTION>13.15549793</MEAN_MOTION><ECCENTRICITY>.0002575</ECCENTRICITY><INCLINATION>87.8942</INCLINATION><RA_OF_ASC_NODE>99.2386</RA_OF_ASC_NODE><ARG_OF_PERICENTER>91.0420</ARG_OF_PERICENTER><MEAN_ANOMALY>269.1005</MEAN_ANOMALY></meanElements><tleParameters><EPHEMERIS_TYPE>0</EPHEMERIS_TYPE><CLASSIFICATION_TYPE>U</CLASSIFICATION_TYPE><NORAD_CAT_ID>48771</NORAD_CAT_ID><ELEMENT_SET_NO>999</ELEMENT_SET_NO><REV_AT_EPOCH>11229</REV_AT_EPOCH><BSTAR>.26557E-3</BSTAR><MEAN_MOTION_DOT>.113E-5</MEAN_MOTION_DOT><MEAN_MOTION_DDOT>0</MEAN_MOTION_DDOT></tleParameters></data></segment></body></omm>
<omm id="CCSDS_OMM_VERS" version="2.0">
<header><CREATION_DATE/><ORIGINATOR/></header><body><segment><metadata><OBJECT_NAME>ONEWEB-0242</OBJECT_NAME><OBJECT_ID>2021-045F</OBJECT_ID><CENTER_NAME>EARTH</CENTER_NAME><REF_FRAME>TEME</REF_FRAME><TIME_SYSTEM>UTC</TIME_SYSTEM><MEAN_ELEMENT_THEORY>SGP4</MEAN_ELEMENT_THEORY></metadata><data><meanElements><EPOCH>2023-09-16T18:49:10.592832</EPOCH><MEAN_MOTION>13.15554893</MEAN_MOTION><ECCENTRICITY>.0001928</ECCENTRICITY><INCLINATION>87.8941</INCLINATION><RA_OF_ASC_NODE>99.1851</RA_OF_ASC_NODE><ARG_OF_PERICENTER>87.9223</ARG_OF_PERICENTER><MEAN_ANOMALY>272.2128</MEAN_ANOMALY></meanElements><tleParameters><EPHEMERIS_TYPE>0</EPHEMERIS_TYPE><CLASSIFICATION_TYPE>U</CLASSIFICATION_TYPE><NORAD_CAT_ID>48772</NORAD_CAT_ID><ELEMENT_SET_NO>999</ELEMENT_SET_NO><REV_AT_EPOCH>11349</REV_AT_EPOCH><BSTAR>.37235E-3</BSTAR><MEAN_MOTION_DOT>.153E-5</MEAN_MOTION_DOT><MEAN_MOTION_DDOT>0</MEAN_MOTION_DDOT></tleParameters></data></segment></body></omm>
<omm id="CCSDS_OMM_VERS" version="2.0">
<header><CREATION_DATE/><ORIGINATOR/></header><body><segment><metadata><OBJECT_NAME>ONEWEB-0241</OBJECT_NAME><OBJECT_ID>2021-045G</OBJECT_ID><CENTER_NAME>EARTH</CENTER_NAME><REF_FRAME>TEME</REF_FRAME><TIME_SYSTEM>UTC</TIME_SYSTEM><MEAN_ELEMENT_THEORY>SGP4</MEAN_ELEMENT_THEORY></metadata><data><meanElements><EPOCH>2023-09-16T14:51:51.229152</EPOCH><MEAN_MOTION>13.15551353</MEAN_MOTION><ECCENTRICITY>.0002142</ECCENTRICITY><INCLINATION>87.8950</INCLINATION><RA_OF_ASC_NODE>99.2390</RA_OF_ASC_NODE><ARG_OF_PERICENTER>72.5907</ARG_OF_PERICENTER><MEAN_ANOMALY>287.5458</MEAN_ANOMALY></meanElements><tleParameters><EPHEMERIS_TYPE>0</EPHEMERIS_TYPE><CLASSIFICATION_TYPE>U</CLASSIFICATION_TYPE><NORAD_CAT_ID>48773</NORAD_CAT_ID><ELEMENT_SET_NO>999</ELEMENT_SET_NO><REV_AT_EPOCH>11338</REV_AT_EPOCH><BSTAR>.51907E-3</BSTAR><MEAN_MOTION_DOT>.208E-5</MEAN_MOTION_DOT><MEAN_MOTION_DDOT>0</MEAN_MOTION_DDOT></tleParameters></data></segment></body></omm>
<omm id="CCSDS_OMM_VERS" version="2.0">
<header><CREATION_DATE/><ORIGINATOR/></header><body><segment><metadata><OBJECT_NAME>ONEWEB-0243</OBJECT_NAME><OBJECT_ID>2021-045H</OBJECT_ID><CENTER_NAME>EARTH</CENTER_NAME><REF_FRAME>TEME</REF_FRAME><TIME_SYSTEM>UTC</TIME_SYSTEM><MEAN_ELEMENT_THEORY>SGP4</MEAN_ELEMENT_THEORY></metadata><data><meanElements><EPOCH>2023-09-16T13:47:58.810272</EPOCH><MEAN_MOTION>13.15550310</MEAN_MOTION><ECCENTRICITY>.000222</ECCENTRICITY><INCLINATION>87.8951</INCLINATION><RA_OF_ASC_NODE>99.2047</RA_OF_ASC_NODE><ARG_OF_PERICENTER>92.3037</ARG_OF_PERICENTER><MEAN_ANOMALY>267.8347</MEAN_ANOMALY></meanElements><tleParameters><EPHEMERIS_TYPE>0</EPHEMERIS_TYPE><CLASSIFICATION_TYPE>U</CLASSIFICATION_TYPE><NORAD_CAT_ID>48774</NORAD_CAT_ID><ELEMENT_SET_NO>999</ELEMENT_SET_NO><REV_AT_EPOCH>11227</REV_AT_EPOCH><BSTAR>-.15459E-3</BSTAR><MEAN_MOTION_DOT>-.45E-6</MEAN_MOTION_DOT><MEAN_MOTION_DDOT>0</MEAN_MOTION_DDOT></tleParameters></data></segment></body></omm>
<omm id="CCSDS_OMM_VERS" version="2.0">
<header><CREATION_DATE/><ORIGINATOR/></header><body><segment><metadata><OBJECT_NAME>ONEWEB-0222</OBJECT_NAME><OBJECT_ID>2021-045J</OBJECT_ID><CENTER_NAME>EARTH</CENTER_NAME><REF_FRAME>TEME</REF_FRAME><TIME_SYSTEM>UTC</TIME_SYSTEM><MEAN_ELEMENT_THEORY>SGP4</MEAN_ELEMENT_THEORY></metadata><data><meanElements><EPOCH>2023-09-16T13:32:46.974912</EPOCH><MEAN_MOTION>13.15548682</MEAN_MOTION><ECCENTRICITY>.0002051</ECCENTRICITY><INCLINATION>87.8940</INCLINATION><RA_OF_ASC_NODE>99.2431</RA_OF_ASC_NODE><ARG_OF_PERICENTER>80.5527</ARG_OF_PERICENTER><MEAN_ANOMALY>279.5835</MEAN_ANOMALY></meanElements><tleParameters><EPHEMERIS_TYPE>0</EPHEMERIS_TYPE><CLASSIFICATION_TYPE>U</CLASSIFICATION_TYPE><NORAD_CAT_ID>48775</NORAD_CAT_ID><ELEMENT_SET_NO>999</ELEMENT_SET_NO><REV_AT_EPOCH>11231</REV_AT_EPOCH><BSTAR>.22768E-3</BSTAR><MEAN_MOTION_DOT>.99E-6</MEAN_MOTION_DOT><MEAN_MOTION_DDOT>0</MEAN_MOTION_DDOT></tleParameters></data></segment></body></omm>
<omm id="CCSDS_OMM_VERS" version="2.0">
<header><CREATION_DATE/><ORIGINATOR/></header><body><segment><metadata><OBJECT_NAME>ONEWEB-0244</OBJECT_NAME><OBJECT_ID>2021-045K</OBJECT_ID><CENTER_NAME>EARTH</CENTER_NAME><REF_FRAME>TEME</REF_FRAME><TIME_SYSTEM>UTC</TIME_SYSTEM><MEAN_ELEMENT_THEORY>SGP4</MEAN_ELEMENT_THEORY></metadata><data><meanElements><EPOCH>2023-09-16T23:10:47.988480</EPOCH><MEAN_MOTION>13.15543993</MEAN_MOTION><ECCENTRICITY>.000184</ECCENTRICITY><INCLINATION>87.8939</INCLINATION><RA_OF_ASC_NODE>99.1473</RA_OF_ASC_NODE><ARG_OF_PERICENTER>90.0874</ARG_OF_PERICENTER><MEAN_ANOMALY>270.0467</MEAN_ANOMALY></meanElements><tleParameters><EPHEMERIS_TYPE>0</EPHEMERIS_TYPE><CLASSIFICATION_TYPE>U</CLASSIFICATION_TYPE><NORAD_CAT_ID>48776</NORAD_CAT_ID><ELEMENT_SET_NO>999</ELEMENT_SET_NO><REV_AT_EPOCH>11405</REV_AT_EPOCH><BSTAR>-.31851E-3</BSTAR><MEAN_MOTION_DOT>-.107E-5</MEAN_MOTION_DOT><MEAN_MOTION_DDOT>0</MEAN_MOTION_DDOT></tleParameters></data></segment></body></omm>

</ndm>
