ONEWEB-0230             
1 48769U 21045C   23259.60035208  .00000103  00000+0  24009-3 0  9992
2 48769  87.8949  99.2822 0001941  80.2486 279.8863 13.15552029113692
ONEWEB-0237             
1 48770U 21045D   23260.12219339 -.00000077  00000+0 -23986-3 0  9997
2 48770  87.8949  99.0955 0002280  87.6435 272.4956 13.15547584113503
ONEWEB-0235             
1 48771U 21045E   23259.56231598  .00000113  00000+0  26557-3 0  9991
2 48771  87.8942  99.2386 0002575  91.0420 269.1005 13.15549793112294
ONEWEB-0242             
1 48772U 21045F   23259.78415038  .00000153  00000+0  37235-3 0  9998
2 48772  87.8941  99.1851 0001928  87.9223 272.2128 13.15554893113497
ONEWEB-0241             
1 48773U 21045G   23259.61934293  .00000208  00000+0  51907-3 0  9993
2 48773  87.8950  99.2390 0002142  72.5907 287.5458 13.15551353113386
ONEWEB-0243             
1 48774U 21045H   23259.57498623 -.00000045  00000+0 -15459-3 0  9994
2 48774  87.8951  99.2047 0002220  92.3037 267.8347 13.15550310112275
ONEWEB-0222             
1 48775U 21045J   23259.56443258  .00000099  00000+0  22768-3 0  9996
2 48775  87.8940  99.2431 0002051  80.5527 279.5835 13.15548682112312
ONEWEB-0244             
1 48776U 21045K   23259.96583320 -.00000107  00000+0 -31851-3 0  9991
2 48776  87.8939  99.1473 0001840  90.0874 270.0467 13.15543993114052
